[{"OBJECT_NAME":"RAPTOR3","OBJECT_ID":"2024-028D","EPOCH":"2026-03-09T13:07:46.781472","MEAN_MOTION":13.70481191,"ECCENTRICITY":0.001103,"INCLINATION":39.9902,"RA_OF_ASC_NODE":141.1531,"ARG_OF_PERICENTER":37.2378,"MEAN_ANOMALY":322.9131,"EPHEMERIS_TYPE":0,"CLASSIFICATION_TYPE":"U","NORAD_CAT_ID":58958,"ELEMENT_SET_NO":999,"REV_AT_EPOCH":10339,"BSTAR":5.4463e-5,"MEAN_MOTION_DOT":-2.9e-7,"MEAN_MOTION_DDOT":0},{"OBJECT_NAME":"SL-8 R\/B","OBJECT_ID":"1980-022B","EPOCH":"2026-03-09T17:42:38.794464","MEAN_MOTION":13.76807047,"ECCENTRICITY":0.00332371,"INCLINATION":82.9431,"RA_OF_ASC_NODE":310.8914,"ARG_OF_PERICENTER":177.0033,"MEAN_ANOMALY":183.133,"EPHEMERIS_TYPE":0,"CLASSIFICATION_TYPE":"U","NORAD_CAT_ID":11736,"ELEMENT_SET_NO":999,"REV_AT_EPOCH":30906,"BSTAR":1.4881781e-5,"MEAN_MOTION_DOT":3.0e-7,"MEAN_MOTION_DDOT":0}]
